start=new Date('2022-04-11T00:00:00.000Z').valueOf();
sats=[{"MEAN_ANOMALY":"314.1189","OBJECT_TYPE":"PAYLOAD","MEAN_ELEMENT_THEORY":"SGP4","INCLINATION":"53.0540","OBJECT_ID":"2020-057AS","FILE":"3396586","ARG_OF_PERICENTER":"45.9959","OBJECT_NAME":"STARLINK-1587","TLE_LINE2":"2 46157  53.0540 211.0958 0001926  45.9959 314.1189 15.06409539 91264","EPOCH":"2022-04-10T19:30:25.783488","ECCENTRICITY":"0.00019260","LAUNCH_DATE":"2020-08-18","EPHEMERIS_TYPE":"0","MEAN_MOTION_DDOT":"0.0000000000000","CLASSIFICATION_TYPE":"U","SEMIMAJOR_AXIS":"6925.319","COUNTRY_CODE":"US","SITE":"AFETR","RA_OF_ASC_NODE":"211.0958","REV_AT_EPOCH":"9126","TLE_LINE1":"1 46157U 20057AS  22100.81279842  .00011404  00000-0  78302-3 0  9996","BSTAR":"0.00078302000000","TIME_SYSTEM":"UTC","DECAY_DATE":null,"REF_FRAME":"TEME","CENTER_NAME":"EARTH","MEAN_MOTION":"15.06409539","APOAPSIS":"548.518","GP_ID":"200939893","ELEMENT_SET_NO":"999","PERIOD":"95.592","PERIAPSIS":"545.851","NORAD_CAT_ID":"46157","MEAN_MOTION_DOT":"0.00011404","RCS_SIZE":"LARGE"},{"EPHEMERIS_TYPE":"0","MEAN_MOTION_DDOT":"0.0000000000000","CLASSIFICATION_TYPE":"U","FILE":"3396586","OBJECT_ID":"2020-057AT","OBJECT_TYPE":"PAYLOAD","INCLINATION":"53.0535","MEAN_ELEMENT_THEORY":"SGP4","MEAN_ANOMALY":"303.1662","LAUNCH_DATE":"2020-08-18","ECCENTRICITY":"0.00016260","TLE_LINE2":"2 46158  53.0535 211.1175 0001626  56.9483 303.1662 15.06402263 92523","OBJECT_NAME":"STARLINK-1589","EPOCH":"2022-04-10T19:25:07.881600","ARG_OF_PERICENTER":"56.9483","TLE_LINE1":"1 46158U 20057AT  22100.80911900  .00009372  00000-0  64718-3 0  9991","BSTAR":"0.00064718000000","REV_AT_EPOCH":"9252","RA_OF_ASC_NODE":"211.1175","DECAY_DATE":null,"TIME_SYSTEM":"UTC","COUNTRY_CODE":"US","SEMIMAJOR_AXIS":"6925.342","SITE":"AFETR","APOAPSIS":"548.333","MEAN_MOTION":"15.06402263","GP_ID":"200940144","REF_FRAME":"TEME","CENTER_NAME":"EARTH","NORAD_CAT_ID":"46158","RCS_SIZE":"LARGE","MEAN_MOTION_DOT":"0.00009372","PERIOD":"95.592","PERIAPSIS":"546.081","ELEMENT_SET_NO":"999"},{"SEMIMAJOR_AXIS":"6925.340","COUNTRY_CODE":"US","SITE":"AFETR","RA_OF_ASC_NODE":"251.2326","REV_AT_EPOCH":"9135","TLE_LINE1":"1 46159U 20057AU  22100.78330707  .00000403  00000-0  45971-4 0  9996","BSTAR":"0.00004597100000","TIME_SYSTEM":"UTC","DECAY_DATE":null,"OBJECT_TYPE":"PAYLOAD","MEAN_ELEMENT_THEORY":"SGP4","INCLINATION":"53.0552","MEAN_ANOMALY":"294.5818","OBJECT_ID":"2020-057AU","FILE":"3396269","ARG_OF_PERICENTER":"65.5331","TLE_LINE2":"2 46159  53.0552 251.2326 0001542  65.5331 294.5818 15.06402941 91350","EPOCH":"2022-04-10T18:47:57.730848","OBJECT_NAME":"STARLINK-1595","ECCENTRICITY":"0.00015420","LAUNCH_DATE":"2020-08-18","MEAN_MOTION_DDOT":"0.0000000000000","EPHEMERIS_TYPE":"0","CLASSIFICATION_TYPE":"U","ELEMENT_SET_NO":"999","PERIAPSIS":"546.137","PERIOD":"95.592","NORAD_CAT_ID":"46159","MEAN_MOTION_DOT":"0.00000403","RCS_SIZE":"LARGE","REF_FRAME":"TEME","CENTER_NAME":"EARTH","MEAN_MOTION":"15.06402941","APOAPSIS":"548.272","GP_ID":"200912043"},{"CLASSIFICATION_TYPE":"U","MEAN_MOTION_DDOT":"0.0000000000000","EPHEMERIS_TYPE":"0","ARG_OF_PERICENTER":"44.2157","EPOCH":"2022-04-10T20:10:13.985760","TLE_LINE2":"2 46160  53.0531 230.9659 0002095  44.2157 315.8999 15.06425008 92230","OBJECT_NAME":"STARLINK-1598","ECCENTRICITY":"0.00020950","LAUNCH_DATE":"2020-08-18","OBJECT_TYPE":"PAYLOAD","MEAN_ANOMALY":"315.8999","MEAN_ELEMENT_THEORY":"SGP4","INCLINATION":"53.0531","FILE":"3396586","OBJECT_ID":"2020-057AV","TIME_SYSTEM":"UTC","DECAY_DATE":null,"REV_AT_EPOCH":"9223","RA_OF_ASC_NODE":"230.9659","TLE_LINE1":"1 46160U 20057AV  22100.84043965  .00019602  00000-0  13303-2 0  9995","BSTAR":"0.00133030000000","SITE":"AFETR","SEMIMAJOR_AXIS":"6925.272","COUNTRY_CODE":"US","GP_ID":"200939142","MEAN_MOTION":"15.06425008","APOAPSIS":"548.588","CENTER_NAME":"EARTH","REF_FRAME":"TEME","MEAN_MOTION_DOT":"0.00019602","RCS_SIZE":"LARGE","NORAD_CAT_ID":"46160","ELEMENT_SET_NO":"999","PERIOD":"95.591","PERIAPSIS":"545.686"},{"DECAY_DATE":null,"TIME_SYSTEM":"UTC","TLE_LINE1":"1 46161U 20057AW  22100.61928875  .00000541  00000-0  55220-4 0  9991","BSTAR":"0.00005522000000","RA_OF_ASC_NODE":"231.9562","REV_AT_EPOCH":"9220","SITE":"AFETR","COUNTRY_CODE":"US","SEMIMAJOR_AXIS":"6925.355","CLASSIFICATION_TYPE":"U","MEAN_MOTION_DDOT":"0.0000000000000","EPHEMERIS_TYPE":"0","LAUNCH_DATE":"2020-08-18","ECCENTRICITY":"0.00014780","EPOCH":"2022-04-10T14:51:46.548000","TLE_LINE2":"2 46161  53.0550 231.9562 0001478  77.5374 282.5780 15.06397763 92201","OBJECT_NAME":"STARLINK-1600","ARG_OF_PERICENTER":"77.5374","FILE":"3396223","OBJECT_ID":"2020-057AW","MEAN_ELEMENT_THEORY":"SGP4","OBJECT_TYPE":"PAYLOAD","MEAN_ANOMALY":"282.5780","INCLINATION":"53.0550","RCS_SIZE":"LARGE","MEAN_MOTION_DOT":"0.00000541","NORAD_CAT_ID":"46161","PERIAPSIS":"546.197","PERIOD":"95.592","ELEMENT_SET_NO":"999","GP_ID":"200906521","APOAPSIS":"548.244","MEAN_MOTION":"15.06397763","CENTER_NAME":"EARTH","REF_FRAME":"TEME"},{"NORAD_CAT_ID":"46162","RCS_SIZE":"LARGE","MEAN_MOTION_DOT":"0.00006828","PERIOD":"95.591","PERIAPSIS":"546.006","ELEMENT_SET_NO":"999","APOAPSIS":"548.350","MEAN_MOTION":"15.06411576","GP_ID":"200939644","REF_FRAME":"TEME","CENTER_NAME":"EARTH","TLE_LINE1":"1 46162U 20057AX  22100.82200891  .00006828  00000-0  47668-3 0  9996","BSTAR":"0.00047668000000","REV_AT_EPOCH":"9224","RA_OF_ASC_NODE":"231.0562","DECAY_DATE":null,"TIME_SYSTEM":"UTC","COUNTRY_CODE":"US","SEMIMAJOR_AXIS":"6925.313","SITE":"AFETR","EPHEMERIS_TYPE":"0","MEAN_MOTION_DDOT":"0.0000000000000","CLASSIFICATION_TYPE":"U","OBJECT_ID":"2020-057AX","FILE":"3396586","INCLINATION":"53.0549","OBJECT_TYPE":"PAYLOAD","MEAN_ELEMENT_THEORY":"SGP4","MEAN_ANOMALY":"305.7466","LAUNCH_DATE":"2020-08-18","ECCENTRICITY":"0.00016920","TLE_LINE2":"2 46162  53.0549 231.0562 0001692  54.3680 305.7466 15.06411576 92244","OBJECT_NAME":"STARLINK-1603","EPOCH":"2022-04-10T19:43:41.569824","ARG_OF_PERICENTER":"54.3680"},{"MEAN_MOTION":"15.06399229","APOAPSIS":"548.377","GP_ID":"200938392","REF_FRAME":"TEME","CENTER_NAME":"EARTH","NORAD_CAT_ID":"46163","RCS_SIZE":"LARGE","MEAN_MOTION_DOT":"0.00009168","ELEMENT_SET_NO":"999","PERIOD":"95.592","PERIAPSIS":"546.055","MEAN_MOTION_DDOT":"0.0000000000000","EPHEMERIS_TYPE":"0","CLASSIFICATION_TYPE":"U","OBJECT_ID":"2020-057AY","FILE":"3396586","INCLINATION":"53.0519","OBJECT_TYPE":"PAYLOAD","MEAN_ANOMALY":"302.7133","MEAN_ELEMENT_THEORY":"SGP4","ECCENTRICITY":"0.00016770","LAUNCH_DATE":"2020-08-18","ARG_OF_PERICENTER":"57.4018","TLE_LINE2":"2 46163  53.0519 211.9509 0001677  57.4018 302.7133 15.06399229 91238","OBJECT_NAME":"STARLINK-1610","EPOCH":"2022-04-10T14:54:26.122752","BSTAR":"0.00063358000000","TLE_LINE1":"1 46163U 20057AY  22100.62113568  .00009168  00000-0  63358-3 0  9993","RA_OF_ASC_NODE":"211.9509","REV_AT_EPOCH":"9123","TIME_SYSTEM":"UTC","DECAY_DATE":null,"COUNTRY_CODE":"US","SEMIMAJOR_AXIS":"6925.351","SITE":"AFETR"},{"SITE":"AFETR","COUNTRY_CODE":"US","SEMIMAJOR_AXIS":"6925.342","DECAY_DATE":null,"TIME_SYSTEM":"UTC","BSTAR":"0.00028340000000","TLE_LINE1":"1 46164U 20057AZ  22100.81648526  .00003942  00000-0  28340-3 0  9998","RA_OF_ASC_NODE":"211.0742","REV_AT_EPOCH":"9252","LAUNCH_DATE":"2020-08-18","ECCENTRICITY":"0.00016370","OBJECT_NAME":"STARLINK-1612","TLE_LINE2":"2 46164  53.0528 211.0742 0001637  65.4315 294.6845 15.06402143 92526","EPOCH":"2022-04-10T19:35:44.326464","ARG_OF_PERICENTER":"65.4315","FILE":"3396586","OBJECT_ID":"2020-057AZ","INCLINATION":"53.0528","OBJECT_TYPE":"PAYLOAD","MEAN_ANOMALY":"294.6845","MEAN_ELEMENT_THEORY":"SGP4","CLASSIFICATION_TYPE":"U","EPHEMERIS_TYPE":"0","MEAN_MOTION_DDOT":"0.0000000000000","PERIAPSIS":"546.073","PERIOD":"95.592","ELEMENT_SET_NO":"999","RCS_SIZE":"LARGE","MEAN_MOTION_DOT":"0.00003942","NORAD_CAT_ID":"46164","CENTER_NAME":"EARTH","REF_FRAME":"TEME","GP_ID":"200938642","APOAPSIS":"548.341","MEAN_MOTION":"15.06402143"},{"REV_AT_EPOCH":"9070","RA_OF_ASC_NODE":"250.3156","TLE_LINE1":"1 46165U 20057BA  22100.71087292  .00027673  00000-0  17075-2 0  9994","BSTAR":"0.00170750000000","TIME_SYSTEM":"UTC","DECAY_DATE":null,"SEMIMAJOR_AXIS":"6915.141","COUNTRY_CODE":"US","SITE":"AFETR","MEAN_MOTION_DDOT":"0.0000000000000","EPHEMERIS_TYPE":"0","CLASSIFICATION_TYPE":"U","OBJECT_TYPE":"PAYLOAD","MEAN_ELEMENT_THEORY":"SGP4","INCLINATION":"53.0527","MEAN_ANOMALY":"307.3757","FILE":"3396586","OBJECT_ID":"2020-057BA","ARG_OF_PERICENTER":"52.7337","EPOCH":"2022-04-10T17:03:39.420288","TLE_LINE2":"2 46165  53.0527 250.3156 0001132  52.7337 307.3757 15.09736662 90705","OBJECT_NAME":"STARLINK-1613","ECCENTRICITY":"0.00011320","LAUNCH_DATE":"2020-08-18","NORAD_CAT_ID":"46165","MEAN_MOTION_DOT":"0.00027673","RCS_SIZE":"LARGE","ELEMENT_SET_NO":"999","PERIOD":"95.381","PERIAPSIS":"536.223","MEAN_MOTION":"15.09736662","APOAPSIS":"537.789","GP_ID":"200939894","REF_FRAME":"TEME","CENTER_NAME":"EARTH"},{"REF_FRAME":"TEME","CENTER_NAME":"EARTH","APOAPSIS":"548.157","MEAN_MOTION":"15.06401360","GP_ID":"200940145","PERIAPSIS":"546.262","PERIOD":"95.592","ELEMENT_SET_NO":"999","NORAD_CAT_ID":"46166","RCS_SIZE":"LARGE","MEAN_MOTION_DOT":"0.00001894","OBJECT_ID":"2020-057BB","FILE":"3396586","MEAN_ELEMENT_THEORY":"SGP4","OBJECT_TYPE":"PAYLOAD","MEAN_ANOMALY":"291.6750","INCLINATION":"53.0552","LAUNCH_DATE":"2020-08-18","ECCENTRICITY":"0.00013680","OBJECT_NAME":"STARLINK-1615","TLE_LINE2":"2 46166  53.0552 251.4385 0001368  68.4384 291.6750 15.06401360 90694","EPOCH":"2022-04-10T17:38:57.675264","ARG_OF_PERICENTER":"68.4384","MEAN_MOTION_DDOT":"0.0000000000000","EPHEMERIS_TYPE":"0","CLASSIFICATION_TYPE":"U","COUNTRY_CODE":"US","SEMIMAJOR_AXIS":"6925.344","SITE":"AFETR","BSTAR":"0.00014602000000","TLE_LINE1":"1 46166U 20057BB  22100.73538976  .00001894  00000-0  14602-3 0  9998","REV_AT_EPOCH":"9069","RA_OF_ASC_NODE":"251.4385","DECAY_DATE":null,"TIME_SYSTEM":"UTC"}];
